#aV2015  2 15  0  0  0.00000000     288 DD+AD WGS84 FIT  NGA
## 1832      0.00000000   300.00000000 57068 0.0000000000000
+   31     1  2  3  4  5  6  7  8  9 10 11 12 13 14 15 16 17
+         18 19 20 21 22 23 24 25 27 28 29 30 31 32  0  0  0
+          0  0  0  0  0  0  0  0  0  0  0  0  0  0  0  0  0
+          0  0  0  0  0  0  0  0  0  0  0  0  0  0  0  0  0
+          0  0  0  0  0  0  0  0  0  0  0  0  0  0  0  0  0
++         2  2  2  2  2  2  2  2  2  2  2  2  2  2  2  2  2
++         2  2  2  2  2  2  2  2  2  2  2  2  2  2  0  0  0
++         0  0  0  0  0  0  0  0  0  0  0  0  0  0  0  0  0
++         0  0  0  0  0  0  0  0  0  0  0  0  0  0  0  0  0
++         0  0  0  0  0  0  0  0  0  0  0  0  0  0  0  0  0
%c cc cc ccc ccc cccc cccc cccc cccc ccccc ccccc ccccc ccccc
%c cc cc ccc ccc cccc cccc cccc cccc ccccc ccccc ccccc ccccc
%f  0.0000000  0.000000000  0.00000000000  0.000000000000000
%f  0.0000000  0.000000000  0.00000000000  0.000000000000000
%i    0    0    0    0      0      0      0      0         0
%i    0    0    0    0      0      0      0      0         0
/*      NGA, ST. LOUIS,MO.                                  
/*   EPHEMERIS COMPUTED FROM  1 DAYS OF DATA                
/*   EPOCHA SMOOTHER                                       
/* CCCCCCCCCCCCCCCCCCCCCCCCCCCCCCCCCCCCCCCCCCCCCCCCCCCCCCCCC
*  2015  2 15  5 40  0.00000000
P  1  13577.786638  -9602.753525  20621.436204     -8.995259                    
V  1   3276.808625  26147.527490  10161.656414      0.004301                    
P  2 -13913.807625 -15592.330814 -16314.615575    548.053449                    
V  2   -586.881690 -21327.925784  19984.186121      0.022830                    
P  3  22924.099670 -12850.825628   4020.948065    209.913531                    
V  3  -2537.756946   5220.372384  31145.269204      0.206827                    
P  4  15681.605510   1921.345992  21060.302603     -7.207461                    
V  4   2588.461993  27410.303437  -4102.267297     -0.006353                    
P  5 -18696.527494  -3156.317731 -18724.212850   -278.896884                    
V  5  18300.580001 -15052.863878 -15604.414624      0.050812                    
P  6  -6398.922080 -25157.478670  -5668.195012     82.356720                    
V  6   1966.559766  -7409.905584  30681.135938      0.112796                    
P  7   7625.830948 -21431.336432 -13311.598267    440.386680                    
V  7   3426.807736  16985.494443 -25546.056115      0.031613                    
P  8  10423.128879  17657.183347 -17024.462075     17.691736                    
V  8  -1575.765633  21649.029186  20642.328577      0.002228                    
P  9  10100.939821 -11982.697023 -21453.586015    -87.314300                    
V  9  24604.565178  11672.065890   5057.342982     -0.114006                    
P 10  -1744.244997 -17046.577308 -20575.499357   -163.406940                    
V 10  21581.868904 -13548.029758   9997.752032     -0.017101                    
P 11  16430.968750  -3086.546783  20133.869763   -557.974922                    
V 11  10625.747125  24876.811687  -4592.319404     -0.025739                    
P 12 -23542.739606   9896.781385   6782.896113    269.467727                    
V 12   6257.579796  -6439.517190  30953.860989      0.029611                    
P 13 -23110.405025 -12883.198502   1211.815923    -88.356559                    
V 13   -204.093249  -3015.881095 -32093.547686     -0.036166                    
P 14   9261.496351  18500.177166  16969.885302     87.286706                    
V 14 -19132.561266  -8867.479661  20244.269540     -0.035052                    
P 15 -24227.953722   -941.872433  11116.231528   -232.366391                    
V 15 -12054.297271  -8031.503653 -26427.401510     -0.022285                    
P 16  18160.044282   3617.360180 -19248.736892   -156.195336                    
V 16 -20103.512950  13328.453348 -16149.494670      0.033052                    
P 17  -7258.260974 -17968.501705  18550.779433   -155.965079                    
V 17  20864.416459   9397.033066  17328.873173     -0.022460                    
P 18 -11410.070112  20394.254240  12807.442419    379.681011                    
V 18 -14582.843337   6713.446856 -24914.352235      0.027510                    
P 19  24304.873882   7454.023260   8286.205068   -500.605777                    
V 19   8169.333575   7101.664406 -29275.428048     -0.014156                    
P 20   7237.877292 -20689.187560 -15157.766691    289.884099                    
V 20  16442.301410  -9969.624893  21813.778078      0.040954                    
P 21  -3652.912447  24453.394417  -8464.868858   -416.805597                    
V 21  -5088.868810 -11365.577650 -28768.215751     -0.040730                    
P 22    632.567028  18014.558232  19676.215395    318.458103                    
V 22 -20844.439670  13363.647616 -11868.768442      0.043167                    
P 23  19878.387226  -4315.741563 -17164.164774    -88.873832                    
V 23  19151.475689  10811.988950  18888.829071     -0.026212                    
P 24 -14488.327300   6291.588913  21307.639380    -43.507910                    
V 24  -3538.723001 -26938.070339   5679.567521     -0.006729                    
P 25 -18849.141858  17836.677030  -5329.799930     -3.877818                    
V 25  -6794.543621   1975.209780  31271.853641     -0.028089                    
P 27  23436.589142  12397.100192  -2301.705447     51.553908                    
V 27  -3701.668503   1128.984531 -31632.171399      0.026507                    
P 28   5551.053710 -18178.812585  19135.028912    419.624632                    
V 28  20062.875203 -11215.886643 -17130.782581      0.026676                    
P 29 -13773.375255   8855.494379 -20870.174811    592.204152                    
V 29 -23153.537170 -13018.256635   9780.776662      0.023175                    
P 30   1962.778271 -26234.390904  -3479.749592    -84.577523                    
V 30   3017.666941   4362.763567 -31295.867492      0.013421                    
P 31   7175.400186  23913.756218  -8402.631926    323.277841                    
V 31  -1761.532756  11072.565257  29851.551545     -0.008732                    
P 32  21580.425165   -160.406983  15102.197283   -223.337622                    
V 32 -15364.538103  12225.218073  22613.860826      0.090659                    
EOF
